ONEWEB-0258             
1 48976U 21060K   25328.82452252  .00000137  00000+0  32388-3 0  9990
2 48976  87.9024 269.4827 0001886  74.4597 285.6742 13.16593083212708
ONEWEB-0259             
1 48977U 21060L   25328.89418383  .00000053  00000+0  10418-3 0  9992
2 48977  87.9032 269.4612 0002087  75.1114 285.0248 13.16593036212744
ONEWEB-0260             
1 48978U 21060M   25328.80947694  .00000077  00000+0  16891-3 0  9993
2 48978  87.9019 269.4943 0001855  90.3975 269.7369 13.16592294212718
ONEWEB-0261             
1 48979U 21060N   25328.77939855 -.00000028  00000+0 -10610-3 0  9991
2 48979  87.9022 269.5017 0002339  80.2034 279.9361 13.16596173212768
ONEWEB-0262             
1 48980U 21060P   25328.75960764  .00000079  00000+0  17323-3 0  9996
2 48980  87.9034 269.4769 0002105  70.0677 290.0681 13.16593449212725
ONEWEB-0263             
1 48981U 21060Q   25328.79127508 -.00000061  00000+0 -19241-3 0  9996
2 48981  87.9023 269.4867 0002361  77.0569 283.0825 13.16593648212693
ONEWEB-0264             
1 48982U 21060R   25328.82848429  .00000259  00000+0  64506-3 0  9994
2 48982  87.9025 269.4833 0002029  85.1503 274.9860 13.16596839212703
ONEWEB-0266             
1 48984U 21060T   25328.77386176  .00000009  00000+0 -10750-4 0  9993
2 48984  87.9033 269.4783 0001921  70.0789 290.0549 13.16593652212687
